EUTELSAT HOTBIRD 13C    
1 33459U 08065A   26196.54706670 -.00000295  00000+0  00000+0 0  9997
2 33459   3.0212  78.8545 0003375  37.3425 323.8274  1.00270594 47630
EXPRESS-AM44            
1 33595U 09007A   26196.41234833 -.00000102  00000+0  00000+0 0  9995
2 33595   3.5332  78.0442 0003612  30.9082 321.7251  1.00271015 52568
NSS-9                   
1 33749U 09008A   26196.56850328  .00000061  00000+0  00000+0 0  9999
2 33749   1.3331  82.3749 0001878  21.5382 217.2195  1.00272108 63802
TELSTAR 11N             
1 34111U 09009A   26196.48794642 -.00000261  00000+0  00000+0 0  9994
2 34111   0.0383 259.2848 0002184 205.7433 326.3951  1.00273003 46525
WGS F2 (USA 204)        
1 34713U 09017A   26196.63977418  .00000058  00000+0  00000+0 0  9995
2 34713   0.0160  41.6659 0000298 192.0212 347.5946  1.00270192 45902
SES-7 (PROTOSTAR 2)     
1 34941U 09027A   26196.58815106 -.00000355  00000+0  00000+0 0  9999
2 34941   0.0101  43.2780 0001416 156.4936  53.6259  1.00269711 62910
MEASAT-3A               
1 35362U 09032A   26195.09162029 -.00000117  00000+0  00000+0 0  9993
2 35362   0.0359 317.7686 0002568 143.9350  23.2173  1.00269864  8307
GOES 14                 
1 35491U 09033A   26196.55391690 -.00000369  00000+0  00000+0 0  9996
2 35491   1.7609  82.6880 0001928  40.3512 134.6172  1.00097897  6870
FM-5                    
1 35493U 09034A   26194.90035760 -.00000205  00000+0  00000+0 0  9998
2 35493   0.0457 259.5714 0000757  86.9227 183.2440  1.00271245 46912
TERRESTAR-1             
1 35496U 09035A   26194.52058797 -.00000064  00000+0  00000+0 0  9998
2 35496   5.1989  48.7738 0002618  55.2029 263.8324  1.00270674 62393
ASIASAT 5               
1 35696U 09042A   26196.66978043  .00000000  00000+0  00000+0 0  9999
2 35696   0.0287  75.8278 0001467  30.9955 168.3819  1.00266727 61996
JCSAT-12 (JCSAT-RA)     
1 35755U 09044A   26196.58323512 -.00000338  00000+0  00000+0 0  9998
2 35755   0.0552 264.1861 0000794 290.0555  81.2014  1.00271919 61893
OPTUS D3                
1 35756U 09044B   26193.95034191 -.00000147  00000+0  00000+0 0  9997
2 35756   0.8917 268.2973 0002923 204.5770 316.2131  1.00268614 61823
NIMIQ 5                 
1 35873U 09050A   26196.54257794 -.00000267  00000+0  00000+0 0  9991
2 35873   0.0439 236.6762 0002553 232.9793 306.3535  1.00270669 61627
AMAZONAS 2              
1 35942U 09054A   26196.66902831 -.00000270  00000+0  00000+0 0  9998
2 35942   1.8872  82.6824 0003173  32.9998 346.6741  1.00269769 61474
COMSATBW-1              
1 35943U 09054B   26196.49826521  .00000015  00000+0  00000+0 0  9997
2 35943   0.0637 173.3377 0002649 301.7320  60.6626  1.00269948 61596
NSS-12                  
1 36032U 09058A   26196.63968751  .00000062  00000+0  00000+0 0  9991
2 36032   0.0917 269.4946 0004871 169.2831 141.9766  1.00270768 61207
THOR 6                  
1 36033U 09058B   26196.34300351  .00000000  00000+0  00000+0 0  9998
2 36033   0.0176  80.1971 0001628  36.1840 299.4552  1.00269792 61285
INTELSAT 14 (IS-14)     
1 36097U 09064A   26196.48794642 -.00000284  00000+0  00000+0 0  9995
2 36097   0.0172 313.3270 0002209 170.7008 299.9541  1.00268516 60882
EUTELSAT 36B            
1 36101U 09065A   26196.63838750  .00000101  00000+0  00000+0 0  9995
2 36101   0.5610  81.3280 0005762  34.0886  98.3914  1.00274091 60998
INTELSAT 15 (IS-15)     
1 36106U 09067A   26196.57396175 -.00000194  00000+0  00000+0 0  9998
2 36106   0.0165 355.4995 0002232 124.1533 105.5189  1.00268553 41518
WGS F3 (USA 211)        
1 36108U 09068A   26196.60259400  .00000054  00000+0  00000+0 0  9998
2 36108   0.2978  85.6157 0000661  93.1691 201.6035  1.00271887 46876
DIRECTV 12              
1 36131U 09075A   26195.96641635 -.00000112  00000+0  00000+0 0  9991
2 36131   0.0065 109.4409 0000351 121.9560 306.6005  1.00271543 46831
BEIDOU-2 G1             
1 36287U 10001A   26196.58482725 -.00000292  00000+0  00000+0 0  9995
2 36287   4.3579  60.3035 0001878 286.9018 297.2216  1.00271850 60459
SDO                     
1 36395U 10005A   26196.22464919 -.00000103  00000+0  00000+0 0  9996
2 36395  34.7083  85.9158 0001967  51.0804 134.7094  1.00277105 60344
INTELSAT 16 (IS-16)     
1 36397U 10006A   26196.54197127 -.00000254  00000+0  00000+0 0  9995
2 36397   0.0113  48.4234 0002345  89.6068 274.2511  1.00269911 59938
EWS-G2 (GOES 15)        
1 36411U 10008A   26196.62058611  .00000011  00000+0  00000+0 0  9997
2 36411   1.3537  82.4543 0005258  54.0034  83.7244  1.00268697 59920
ECHOSTAR 14             
1 36499U 10010A   26196.60476068 -.00000010  00000+0  00000+0 0  9994
2 36499   0.0447 245.0785 0001889 211.6058 295.5568  1.00271386 46837
SES-1                   
1 36516U 10016A   26196.60831403 -.00000124  00000+0  00000+0 0  9994
2 36516   0.0349 294.2011 0002401 177.9711 299.2654  1.00271646 59310
ASTRA 3B                
1 36581U 10021A   26196.56171344  .00000126  00000+0  00000+0 0  9999
2 36581   1.5403  83.2112 0004400  21.4301  54.4769  1.00270316 59159
COMSATBW-2              
1 36582U 10021B   26195.56162044  .00000081  00000+0  00000+0 0  9996
2 36582   0.0518 117.8274 0002393  15.5284  14.4770  1.00273631 59237
BEIDOU-2 G3             
1 36590U 10024A   26196.64410752 -.00000146  00000+0  00000+0 0  9993
2 36590   4.5808  61.3805 0006894 359.6699 183.8699  1.00268356 59051
