OBJECT_NAME,OBJECT_ID,EPOCH,MEAN_MOTION,ECCENTRICITY,INCLINATION,RA_OF_ASC_NODE,ARG_OF_PERICENTER,MEAN_ANOMALY,EPHEMERIS_TYPE,CLASSIFICATION_TYPE,NORAD_CAT_ID,ELEMENT_SET_NO,REV_AT_EPOCH,BSTAR,MEAN_MOTION_DOT,MEAN_MOTION_DDOT
EUTELSAT HOTBIRD 13C,2008-065A,2026-07-15T13:07:46.562880,1.00270594,.00033753,3.0212,78.8545,37.3425,323.8274,0,U,33459,999,4763,0,-.295E-5,0
EXPRESS-AM44,2009-007A,2026-07-15T09:53:46.895712,1.00271015,.00036128,3.5332,78.0442,30.9082,321.7251,0,U,33595,999,5256,0,-.102E-5,0
NSS-9,2009-008A,2026-07-15T13:38:38.683392,1.00272108,.00018785,1.3331,82.3749,21.5382,217.2195,0,U,33749,999,6380,0,.61E-6,0
TELSTAR 11N,2009-009A,2026-07-15T11:42:38.570688,1.00273003,.00021844,0.0383,259.2848,205.7433,326.3951,0,U,34111,999,4652,0,-.261E-5,0
WGS F2 (USA 204),2009-017A,2026-07-15T15:21:16.489152,1.00270192,.00002987,0.0160,41.6659,192.0212,347.5946,0,U,34713,999,4590,0,.58E-6,0
SES-7 (PROTOSTAR 2),2009-027A,2026-07-15T14:06:56.251584,1.00269711,.0001416,0.0101,43.2780,156.4936,53.6259,0,U,34941,999,6291,0,-.355E-5,0
MEASAT-3A,2009-032A,2026-07-14T02:11:55.993056,1.00269864,.00025681,0.0359,317.7686,143.9350,23.2173,0,U,35362,999,830,0,-.117E-5,0
GOES 14,2009-033A,2026-07-15T13:17:38.420160,1.00097897,.00019281,1.7609,82.6880,40.3512,134.6172,0,U,35491,999,687,0,-.369E-5,0
FM-5,2009-034A,2026-07-13T21:36:30.896640,1.00271245,.00007579,0.0457,259.5714,86.9227,183.2440,0,U,35493,999,4691,0,-.205E-5,0
TERRESTAR-1,2009-035A,2026-07-13T12:29:38.800608,1.00270674,.00026182,5.1989,48.7738,55.2029,263.8324,0,U,35496,999,6239,0,-.64E-6,0
ASIASAT 5,2009-042A,2026-07-15T16:04:29.029152,1.00266727,.00014679,0.0287,75.8278,30.9955,168.3819,0,U,35696,999,6199,0,0,0
JCSAT-12 (JCSAT-RA),2009-044A,2026-07-15T13:59:51.514368,1.00271919,.00007949,0.0552,264.1861,290.0555,81.2014,0,U,35755,999,6189,0,-.338E-5,0
OPTUS D3,2009-044B,2026-07-12T22:48:29.541024,1.00268614,.00029239,0.8917,268.2973,204.5770,316.2131,0,U,35756,999,6182,0,-.147E-5,0
NIMIQ 5,2009-050A,2026-07-15T13:01:18.734016,1.00270669,.0002553,0.0439,236.6762,232.9793,306.3535,0,U,35873,999,6162,0,-.267E-5,0
AMAZONAS 2,2009-054A,2026-07-15T16:03:24.045984,1.00269769,.00031736,1.8872,82.6824,32.9998,346.6741,0,U,35942,999,6147,0,-.27E-5,0
COMSATBW-1,2009-054B,2026-07-15T11:57:30.114144,1.00269948,.00026499,0.0637,173.3377,301.7320,60.6626,0,U,35943,999,6159,0,.15E-6,0
NSS-12,2009-058A,2026-07-15T15:21:09.000864,1.00270768,.00048716,0.0917,269.4946,169.2831,141.9766,0,U,36032,999,6120,0,.62E-6,0
THOR 6,2009-058B,2026-07-15T08:13:55.503264,1.00269792,.00016285,0.0176,80.1971,36.1840,299.4552,0,U,36033,999,6128,0,0,0
INTELSAT 14 (IS-14),2009-064A,2026-07-15T11:42:38.570688,1.00268516,.00022091,0.0172,313.3270,170.7008,299.9541,0,U,36097,999,6088,0,-.284E-5,0
EUTELSAT 36B,2009-065A,2026-07-15T15:19:16.680000,1.00274091,.00057624,0.5610,81.3280,34.0886,98.3914,0,U,36101,999,6099,0,.101E-5,0
INTELSAT 15 (IS-15),2009-067A,2026-07-15T13:46:30.295200,1.00268553,.00022322,0.0165,355.4995,124.1533,105.5189,0,U,36106,999,4151,0,-.194E-5,0
WGS F3 (USA 211),2009-068A,2026-07-15T14:27:44.121600,1.00271887,.00006611,0.2978,85.6157,93.1691,201.6035,0,U,36108,999,4687,0,.54E-6,0
DIRECTV 12,2009-075A,2026-07-14T23:11:38.372640,1.00271543,.00003517,0.0065,109.4409,121.9560,306.6005,0,U,36131,999,4683,0,-.112E-5,0
BEIDOU-2 G1,2010-001A,2026-07-15T14:02:09.074400,1.00271850,.00018788,4.3579,60.3035,286.9018,297.2216,0,U,36287,999,6045,0,-.292E-5,0
SDO,2010-005A,2026-07-15T05:23:29.690016,1.00277105,.00019673,34.7083,85.9158,51.0804,134.7094,0,U,36395,999,6034,0,-.103E-5,0
INTELSAT 16 (IS-16),2010-006A,2026-07-15T13:00:26.317728,1.00269911,.00023459,0.0113,48.4234,89.6068,274.2511,0,U,36397,999,5993,0,-.254E-5,0
EWS-G2 (GOES 15),2010-008A,2026-07-15T14:53:38.639904,1.00268697,.00052588,1.3537,82.4543,54.0034,83.7244,0,U,36411,999,5992,0,.11E-6,0
ECHOSTAR 14,2010-010A,2026-07-15T14:30:51.322752,1.00271386,.00018896,0.0447,245.0785,211.6058,295.5568,0,U,36499,999,4683,0,-.1E-6,0
SES-1,2010-016A,2026-07-15T14:35:58.332192,1.00271646,.00024019,0.0349,294.2011,177.9711,299.2654,0,U,36516,999,5931,0,-.124E-5,0
ASTRA 3B,2010-021A,2026-07-15T13:28:52.041216,1.00270316,.00044004,1.5403,83.2112,21.4301,54.4769,0,U,36581,999,5915,0,.126E-5,0
COMSATBW-2,2010-021B,2026-07-14T13:28:44.006016,1.00273631,.0002393,0.0518,117.8274,15.5284,14.4770,0,U,36582,999,5923,0,.81E-6,0
BEIDOU-2 G3,2010-024A,2026-07-15T15:27:30.889728,1.00268356,.00068946,4.5808,61.3805,359.6699,183.8699,0,U,36590,999,5905,0,-.146E-5,0
